STARLINK-35952          
1 66520U 25265E   25334.83336806 -.01356965  00000+0 -86419-2 0  9999
2 66520  42.9996 125.0081 0001608 285.3116  78.3616 15.78109225  3080
STARLINK-35915          
1 66521U 25265F   25334.83336806 -.01362129  00000+0 -86775-2 0  9994
2 66521  42.9997 125.0032 0001681 284.3307  81.2793 15.78111583  3089
STARLINK-35946          
1 66522U 25265G   25334.83336806 -.01369220  00000+0 -87499-2 0  9998
2 66522  42.9996 124.9977 0001827 281.6830  86.0982 15.78055299  3082
STARLINK-35969          
1 66523U 25265H   25334.83336806 -.01384972  00000+0 -88763-2 0  9995
2 66523  42.9997 124.9924 0001769 280.6691  89.2116 15.78022847  3082
STARLINK-35687          
1 66524U 25265J   25334.83336806 -.01397769  00000+0 -89865-2 0  9998
2 66524  42.9997 124.9868 0001767 282.5082  89.5008 15.77978988  3081
STARLINK-35975          
1 66525U 25265K   25334.83336806 -.01417824  00000+0 -91375-2 0  9993
2 66525  42.9997 124.9821 0001689 279.4082  94.6226 15.77966263  3081
STARLINK-35932          
1 66526U 25265L   25334.83336806 -.01443916  00000+0 -93430-2 0  9999
2 66526  42.9997 124.9767 0001654 284.0426  92.0988 15.77930524  2972
STARLINK-35935          
1 66527U 25265M   25334.83336806 -.01461656  00000+0 -94944-2 0  9992
2 66527  42.9998 124.9716 0001608 286.6438  91.6206 15.77881518  3087
STARLINK-35928          
1 66528U 25265N   25334.83336806 -.01479199  00000+0 -96443-2 0  9990
2 66528  42.9998 124.9662 0001573 285.2142  95.1573 15.77834760  3089
STARLINK-35933          
1 66529U 25265P   25334.83336806 -.01498362  00000+0 -98118-2 0  9995
2 66529  42.9999 124.9606 0001601 285.8235  96.6865 15.77777348  3088
STARLINK-35961          
1 66530U 25265Q   25334.83336806 -.01516892  00000+0 -99534-2 0  9999
2 66530  42.9998 124.9558 0001672 281.4742 103.0172 15.77769299  3088
STARLINK-35960          
1 66531U 25265R   25334.83336806 -.01388030  00000+0 -90749-2 0  9990
2 66531  42.9998 124.9499 0001155 250.9401 135.6812 15.77596088  3088
