CCSDS_OMM_VERS = 2.0
CREATION_DATE  = 
ORIGINATOR     = 

OBJECT_NAME    = STARLINK-35952
OBJECT_ID      = 2025-265E
CENTER_NAME    = EARTH
REF_FRAME      = TEME
TIME_SYSTEM    = UTC
MEAN_ELEMENT_THEORY = SGP/SGP4

EPOCH          = 2025-11-30T20:00:03.000384
MEAN_MOTION    = 15.78109225
ECCENTRICITY   = .0001608
INCLINATION    = 42.9996
RA_OF_ASC_NODE = 125.0081
ARG_OF_PERICENTER = 285.3116
MEAN_ANOMALY   = 78.3616

EPHEMERIS_TYPE = 0
CLASSIFICATION_TYPE = U
NORAD_CAT_ID   = 66520
ELEMENT_SET_NO = 999
REV_AT_EPOCH   = 308
BSTAR          = -.86419E-2
MEAN_MOTION_DOT = -.1356965E-1
MEAN_MOTION_DDOT = 0

CCSDS_OMM_VERS = 2.0
CREATION_DATE  = 
ORIGINATOR     = 

OBJECT_NAME    = STARLINK-35915
OBJECT_ID      = 2025-265F
CENTER_NAME    = EARTH
REF_FRAME      = TEME
TIME_SYSTEM    = UTC
MEAN_ELEMENT_THEORY = SGP/SGP4

EPOCH          = 2025-11-30T20:00:03.000384
MEAN_MOTION    = 15.78111583
ECCENTRICITY   = .0001681
INCLINATION    = 42.9997
RA_OF_ASC_NODE = 125.0032
ARG_OF_PERICENTER = 284.3307
MEAN_ANOMALY   = 81.2793

EPHEMERIS_TYPE = 0
CLASSIFICATION_TYPE = U
NORAD_CAT_ID   = 66521
ELEMENT_SET_NO = 999
REV_AT_EPOCH   = 308
BSTAR          = -.86775E-2
MEAN_MOTION_DOT = -.1362129E-1
MEAN_MOTION_DDOT = 0

CCSDS_OMM_VERS = 2.0
CREATION_DATE  = 
ORIGINATOR     = 

OBJECT_NAME    = STARLINK-35946
OBJECT_ID      = 2025-265G
CENTER_NAME    = EARTH
REF_FRAME      = TEME
TIME_SYSTEM    = UTC
MEAN_ELEMENT_THEORY = SGP/SGP4

EPOCH          = 2025-11-30T20:00:03.000384
MEAN_MOTION    = 15.78055299
ECCENTRICITY   = .0001827
INCLINATION    = 42.9996
RA_OF_ASC_NODE = 124.9977
ARG_OF_PERICENTER = 281.6830
MEAN_ANOMALY   = 86.0982

EPHEMERIS_TYPE = 0
CLASSIFICATION_TYPE = U
NORAD_CAT_ID   = 66522
ELEMENT_SET_NO = 999
REV_AT_EPOCH   = 308
BSTAR          = -.87499E-2
MEAN_MOTION_DOT = -.136922E-1
MEAN_MOTION_DDOT = 0

CCSDS_OMM_VERS = 2.0
CREATION_DATE  = 
ORIGINATOR     = 

OBJECT_NAME    = STARLINK-35969
OBJECT_ID      = 2025-265H
CENTER_NAME    = EARTH
REF_FRAME      = TEME
TIME_SYSTEM    = UTC
MEAN_ELEMENT_THEORY = SGP/SGP4

EPOCH          = 2025-11-30T20:00:03.000384
MEAN_MOTION    = 15.78022847
ECCENTRICITY   = .0001769
INCLINATION    = 42.9997
RA_OF_ASC_NODE = 124.9924
ARG_OF_PERICENTER = 280.6691
MEAN_ANOMALY   = 89.2116

EPHEMERIS_TYPE = 0
CLASSIFICATION_TYPE = U
NORAD_CAT_ID   = 66523
ELEMENT_SET_NO = 999
REV_AT_EPOCH   = 308
BSTAR          = -.88763E-2
MEAN_MOTION_DOT = -.1384972E-1
MEAN_MOTION_DDOT = 0

CCSDS_OMM_VERS = 2.0
CREATION_DATE  = 
ORIGINATOR     = 

OBJECT_NAME    = STARLINK-35687
OBJECT_ID      = 2025-265J
CENTER_NAME    = EARTH
REF_FRAME      = TEME
TIME_SYSTEM    = UTC
MEAN_ELEMENT_THEORY = SGP/SGP4

EPOCH          = 2025-11-30T20:00:03.000384
MEAN_MOTION    = 15.77978988
ECCENTRICITY   = .0001767
INCLINATION    = 42.9997
RA_OF_ASC_NODE = 124.9868
ARG_OF_PERICENTER = 282.5082
MEAN_ANOMALY   = 89.5008

EPHEMERIS_TYPE = 0
CLASSIFICATION_TYPE = U
NORAD_CAT_ID   = 66524
ELEMENT_SET_NO = 999
REV_AT_EPOCH   = 308
BSTAR          = -.89865E-2
MEAN_MOTION_DOT = -.1397769E-1
MEAN_MOTION_DDOT = 0

CCSDS_OMM_VERS = 2.0
CREATION_DATE  = 
ORIGINATOR     = 

OBJECT_NAME    = STARLINK-35975
OBJECT_ID      = 2025-265K
CENTER_NAME    = EARTH
REF_FRAME      = TEME
TIME_SYSTEM    = UTC
MEAN_ELEMENT_THEORY = SGP/SGP4

EPOCH          = 2025-11-30T20:00:03.000384
MEAN_MOTION    = 15.77966263
ECCENTRICITY   = .0001689
INCLINATION    = 42.9997
RA_OF_ASC_NODE = 124.9821
ARG_OF_PERICENTER = 279.4082
MEAN_ANOMALY   = 94.6226

EPHEMERIS_TYPE = 0
CLASSIFICATION_TYPE = U
NORAD_CAT_ID   = 66525
ELEMENT_SET_NO = 999
REV_AT_EPOCH   = 308
BSTAR          = -.91375E-2
MEAN_MOTION_DOT = -.1417824E-1
MEAN_MOTION_DDOT = 0

CCSDS_OMM_VERS = 2.0
CREATION_DATE  = 
ORIGINATOR     = 

OBJECT_NAME    = STARLINK-35932
OBJECT_ID      = 2025-265L
CENTER_NAME    = EARTH
REF_FRAME      = TEME
TIME_SYSTEM    = UTC
MEAN_ELEMENT_THEORY = SGP/SGP4

EPOCH          = 2025-11-30T20:00:03.000384
MEAN_MOTION    = 15.77930524
ECCENTRICITY   = .0001654
INCLINATION    = 42.9997
RA_OF_ASC_NODE = 124.9767
ARG_OF_PERICENTER = 284.0426
MEAN_ANOMALY   = 92.0988

EPHEMERIS_TYPE = 0
CLASSIFICATION_TYPE = U
NORAD_CAT_ID   = 66526
ELEMENT_SET_NO = 999
REV_AT_EPOCH   = 297
BSTAR          = -.9343E-2
MEAN_MOTION_DOT = -.1443916E-1
MEAN_MOTION_DDOT = 0

CCSDS_OMM_VERS = 2.0
CREATION_DATE  = 
ORIGINATOR     = 

OBJECT_NAME    = STARLINK-35935
OBJECT_ID      = 2025-265M
CENTER_NAME    = EARTH
REF_FRAME      = TEME
TIME_SYSTEM    = UTC
MEAN_ELEMENT_THEORY = SGP/SGP4

EPOCH          = 2025-11-30T20:00:03.000384
MEAN_MOTION    = 15.77881518
ECCENTRICITY   = .0001608
INCLINATION    = 42.9998
RA_OF_ASC_NODE = 124.9716
ARG_OF_PERICENTER = 286.6438
MEAN_ANOMALY   = 91.6206

EPHEMERIS_TYPE = 0
CLASSIFICATION_TYPE = U
NORAD_CAT_ID   = 66527
ELEMENT_SET_NO = 999
REV_AT_EPOCH   = 308
BSTAR          = -.94944E-2
MEAN_MOTION_DOT = -.1461656E-1
MEAN_MOTION_DDOT = 0

CCSDS_OMM_VERS = 2.0
CREATION_DATE  = 
ORIGINATOR     = 

OBJECT_NAME    = STARLINK-35928
OBJECT_ID      = 2025-265N
CENTER_NAME    = EARTH
REF_FRAME      = TEME
TIME_SYSTEM    = UTC
MEAN_ELEMENT_THEORY = SGP/SGP4

EPOCH          = 2025-11-30T20:00:03.000384
MEAN_MOTION    = 15.77834760
ECCENTRICITY   = .0001573
INCLINATION    = 42.9998
RA_OF_ASC_NODE = 124.9662
ARG_OF_PERICENTER = 285.2142
MEAN_ANOMALY   = 95.1573

EPHEMERIS_TYPE = 0
CLASSIFICATION_TYPE = U
NORAD_CAT_ID   = 66528
ELEMENT_SET_NO = 999
REV_AT_EPOCH   = 308
BSTAR          = -.96443E-2
MEAN_MOTION_DOT = -.1479199E-1
MEAN_MOTION_DDOT = 0

CCSDS_OMM_VERS = 2.0
CREATION_DATE  = 
ORIGINATOR     = 

OBJECT_NAME    = STARLINK-35933
OBJECT_ID      = 2025-265P
CENTER_NAME    = EARTH
REF_FRAME      = TEME
TIME_SYSTEM    = UTC
MEAN_ELEMENT_THEORY = SGP/SGP4

EPOCH          = 2025-11-30T20:00:03.000384
MEAN_MOTION    = 15.77777348
ECCENTRICITY   = .0001601
INCLINATION    = 42.9999
RA_OF_ASC_NODE = 124.9606
ARG_OF_PERICENTER = 285.8235
MEAN_ANOMALY   = 96.6865

EPHEMERIS_TYPE = 0
CLASSIFICATION_TYPE = U
NORAD_CAT_ID   = 66529
ELEMENT_SET_NO = 999
REV_AT_EPOCH   = 308
BSTAR          = -.98118E-2
MEAN_MOTION_DOT = -.1498362E-1
MEAN_MOTION_DDOT = 0

CCSDS_OMM_VERS = 2.0
CREATION_DATE  = 
ORIGINATOR     = 

OBJECT_NAME    = STARLINK-35961
OBJECT_ID      = 2025-265Q
CENTER_NAME    = EARTH
REF_FRAME      = TEME
TIME_SYSTEM    = UTC
MEAN_ELEMENT_THEORY = SGP/SGP4

EPOCH          = 2025-11-30T20:00:03.000384
MEAN_MOTION    = 15.77769299
ECCENTRICITY   = .0001672
INCLINATION    = 42.9998
RA_OF_ASC_NODE = 124.9558
ARG_OF_PERICENTER = 281.4742
MEAN_ANOMALY   = 103.0172

EPHEMERIS_TYPE = 0
CLASSIFICATION_TYPE = U
NORAD_CAT_ID   = 66530
ELEMENT_SET_NO = 999
REV_AT_EPOCH   = 308
BSTAR          = -.99534E-2
MEAN_MOTION_DOT = -.1516892E-1
MEAN_MOTION_DDOT = 0

CCSDS_OMM_VERS = 2.0
CREATION_DATE  = 
ORIGINATOR     = 

OBJECT_NAME    = STARLINK-35960
OBJECT_ID      = 2025-265R
CENTER_NAME    = EARTH
REF_FRAME      = TEME
TIME_SYSTEM    = UTC
MEAN_ELEMENT_THEORY = SGP/SGP4

EPOCH          = 2025-11-30T20:00:03.000384
MEAN_MOTION    = 15.77596088
ECCENTRICITY   = .0001155
INCLINATION    = 42.9998
RA_OF_ASC_NODE = 124.9499
ARG_OF_PERICENTER = 250.9401
MEAN_ANOMALY   = 135.6812

EPHEMERIS_TYPE = 0
CLASSIFICATION_TYPE = U
NORAD_CAT_ID   = 66531
ELEMENT_SET_NO = 999
REV_AT_EPOCH   = 308
BSTAR          = -.90749E-2
MEAN_MOTION_DOT = -.138803E-1
MEAN_MOTION_DDOT = 0

